OBJECT_NAME,OBJECT_ID,EPOCH,MEAN_MOTION,ECCENTRICITY,INCLINATION,RA_OF_ASC_NODE,ARG_OF_PERICENTER,MEAN_ANOMALY,EPHEMERIS_TYPE,CLASSIFICATION_TYPE,NORAD_CAT_ID,ELEMENT_SET_NO,REV_AT_EPOCH,BSTAR,MEAN_MOTION_DOT,MEAN_MOTION_DDOT
STARLINK-4621,2022-105AE,2026-07-12T13:38:18.541824,15.05656300,.0001693,97.2834,71.2607,93.1582,266.9839,0,U,53676,999,21202,.24194E-4,.293E-5,0
SHERPA-LTC2,2022-107BG,2026-07-13T03:53:27.691584,14.69908951,.03928247,53.2373,110.3577,299.0132,57.2011,0,U,53754,999,20636,.12669626E-3,.2244E-4,0
CENTISPACE-1 S3,2022-108A,2026-07-13T06:25:33.117888,14.61282035,.00107071,53.5339,307.4127,60.1828,300.0210,0,U,53757,999,20534,.65804883E-4,.138E-5,0
CENTISPACE-1 S4,2022-108B,2026-07-13T07:23:45.674592,14.61970773,.00099816,53.5313,304.6389,49.7606,310.4242,0,U,53758,999,20538,.81736695E-4,.222E-5,0
BLUEWALKER-3,2022-111AL,2026-07-13T05:32:03.253344,15.38594715,.00045636,53.2290,271.6760,257.5793,102.4702,0,U,53807,999,21421,.11178984E-3,.393E-4,0
YUNHAI-1 03,2022-115A,2026-07-13T07:21:18.620928,14.32735612,.00042841,98.5543,192.1231,345.5729,14.5332,0,U,53877,999,19925,.10405601E-3,.24E-5,0
CENTISPACE-1 S5,2022-126A,2026-07-13T06:01:26.666976,14.63054614,.00144565,54.9988,108.6574,120.7651,239.4769,0,U,54020,999,20085,.11623537E-3,.412E-5,0
CENTISPACE-1 S6,2022-126B,2026-07-13T06:10:25.612896,14.62314962,.00162545,54.9991,110.6199,121.8659,238.3919,0,U,54021,999,20081,.93418994E-4,.287E-5,0
OTB-3-GAZELLE,2022-127A,2026-07-12T22:18:30.616992,14.42683521,.00143851,98.3959,185.2434,109.1900,251.0849,0,U,54023,999,19807,.35090155E-4,.74E-6,0
ASO-S,2022-129A,2026-07-13T07:13:20.726976,14.52074296,.00147059,98.2755,199.0082,17.9344,342.2367,0,U,54029,999,19921,.37644308E-4,.108E-5,0
HJ-2E,2022-132A,2026-07-13T07:28:21.601632,15.22678720,.00180183,97.3799,198.2238,277.7412,82.1779,0,U,54035,999,20839,.1906895E-3,.4389E-4,0
COSMOS 2561,2022-137A,2026-07-13T05:02:09.179808,15.52341122,.0008168,96.9178,252.2456,289.8412,70.1961,0,U,54109,999,21038,.15044E-3,.9082E-4,0
GONETS-M 23,2022-139A,2026-07-13T06:19:07.849920,12.42891894,.00220594,82.5093,332.0887,162.5890,197.5951,0,U,54150,999,16888,.54144656E-4,.17E-6,0
GONETS-M 24,2022-139B,2026-07-13T07:36:15.391584,12.42892454,.0017122,82.5010,331.0973,172.0754,188.0599,0,U,54151,999,16889,-.35500113E-4,.5E-7,0
GONETS-M 25,2022-139C,2026-07-13T07:16:42.954816,12.42890826,.00210605,82.5075,331.8062,171.1202,189.0255,0,U,54152,999,16889,-.28736425E-4,.6E-7,0
SKIF-D,2022-139D,2026-07-13T00:55:53.265216,5.00430160,.00074291,89.9493,96.6607,188.3569,171.6996,0,U,54153,999,6540,0,.8E-7,0
MATS,2022-147A,2026-07-12T23:18:53.216064,15.05495121,.00141188,97.6827,195.4588,109.8507,250.4243,0,U,54227,999,20164,.97860926E-4,.1347E-4,0
EOS-6 (OCEANSAT-3),2022-158A,2026-07-13T07:13:34.259808,14.46983780,.00003187,98.3549,292.1497,136.0127,224.1091,0,U,54361,999,19161,.42873979E-4,.112E-5,0
DONGPO 09,2022-167D,2026-07-13T07:51:37.863648,15.36906654,.00029125,97.6909,6.5150,56.6972,303.4550,0,U,54685,999,19946,.19628545E-3,.6996E-4,0
DONGPO 08,2022-167E,2026-07-13T06:56:15.048384,15.34159684,.00093221,97.6874,3.5282,79.6005,280.6288,0,U,54686,999,19932,.19795196E-3,.6467E-4,0
2022-167F,2022-167F,2026-07-13T06:26:48.295392,16.14837426,.00070124,97.5961,25.7780,243.9507,116.1057,0,U,54687,999,20100,.70748579E-3,.904473E-2,.52180532E-3
DONGPO 10,2022-167H,2026-07-13T06:45:54.647136,15.34975841,.00051291,97.6955,5.5340,34.4255,325.7319,0,U,54689,999,19936,.19616532E-3,.6571E-4,0
JILIN-1 GAOFEN 03D48,2022-167P,2026-07-13T06:23:33.605088,15.35766408,.0006622,97.6889,4.9051,36.4727,323.6966,0,U,54695,999,19939,.19342467E-3,.6646E-4,0
STAR VIBE,2023-001A,2026-07-13T05:46:56.566272,15.43320034,.00056863,97.3163,258.8202,37.2976,322.8666,0,U,55009,999,19624,.22360208E-3,.9879E-4,0
BRO-8,2023-001C,2026-07-13T06:16:05.481984,15.50670084,.00050578,97.3193,259.8479,46.7613,313.4060,0,U,55011,999,19624,.37155167E-3,.21262E-3,0
CONNECTA T1.2,2023-001D,2026-07-12T16:58:48.345600,15.52743920,.0004122,97.3248,264.8832,16.9652,343.1738,0,U,55012,999,19650,.46967654E-3,.28991E-3,0
BIRKELAND,2023-001G,2026-07-13T06:17:39.322752,15.40517584,.00066333,97.3340,262.3045,27.6331,332.5266,0,U,55015,999,19636,.14066197E-3,.5626E-4,0
ION SCV-008,2023-001AU,2026-07-13T06:56:42.143424,15.28866234,.00131855,97.5722,291.0497,280.7353,79.2402,0,U,55051,999,19532,.12981942E-3,.357E-4,0
ION SCV-007,2023-001BD,2026-07-13T03:14:00.585600,14.77575181,.00109899,97.8994,256.6335,249.6176,110.3855,0,U,55060,999,19008,.36048491E-4,.207E-5,0
HUYGENS,2023-001CN,2026-07-13T06:17:46.634784,15.40516962,.00086358,97.3244,261.5004,0.2861,359.8389,0,U,55093,999,19638,.1421379E-3,.5689E-4,0
