STARLINK-4621           
1 53676U 22105AE  26193.56827016  .00000293  00000+0  24194-4 0  9990
2 53676  97.2834  71.2607 0001693  93.1582 266.9839 15.05656300212023
SHERPA-LTC2             
1 53754U 22107BG  26194.16212606  .00002244  00000+0  12670-3 0  9992
2 53754  53.2373 110.3577 0392824 299.0132  57.2011 14.69908951206362
CENTISPACE-1 S3         
1 53757U 22108A   26194.26774442  .00000138  00000+0  65805-4 0  9997
2 53757  53.5339 307.4127 0010707  60.1828 300.0210 14.61282035205343
CENTISPACE-1 S4         
1 53758U 22108B   26194.30816753  .00000222  00000+0  81737-4 0  9991
2 53758  53.5313 304.6389 0009981  49.7606 310.4242 14.61970773205381
BLUEWALKER-3            
1 53807U 22111AL  26194.23059321  .00003930  00000+0  11179-3 0  9993
2 53807  53.2290 271.6760 0004563 257.5793 102.4702 15.38594715214215
YUNHAI-1 03             
1 53877U 22115A   26194.30646552  .00000240  00000+0  10406-3 0  9993
2 53877  98.5543 192.1231 0004284 345.5729  14.5332 14.32735612199256
CENTISPACE-1 S5         
1 54020U 22126A   26194.25100309  .00000412  00000+0  11624-3 0  9999
2 54020  54.9988 108.6574 0014456 120.7651 239.4769 14.63054614200858
CENTISPACE-1 S6         
1 54021U 22126B   26194.25724089  .00000287  00000+0  93419-4 0  9990
2 54021  54.9991 110.6199 0016254 121.8659 238.3919 14.62314962200812
OTB-3-GAZELLE           
1 54023U 22127A   26193.92952103  .00000074  00000+0  35090-4 0  9991
2 54023  98.3959 185.2434 0014385 109.1900 251.0849 14.42683521198077
ASO-S                   
1 54029U 22129A   26194.30093434  .00000108  00000+0  37644-4 0  9990
2 54029  98.2755 199.0082 0014705  17.9344 342.2367 14.52074296199211
HJ-2E                   
1 54035U 22132A   26194.31136113  .00004389  00000+0  19069-3 0  9999
2 54035  97.3799 198.2238 0018018 277.7412  82.1779 15.22678720208390
COSMOS 2561             
1 54109U 22137A   26194.20982847  .00009082  00000+0  15044-3 0  9991
2 54109  96.9178 252.2456 0008168 289.8412  70.1961 15.52341122210388
GONETS-M 23             
1 54150U 22139A   26194.26328530  .00000017  00000+0  54145-4 0  9993
2 54150  82.5093 332.0887 0022059 162.5890 197.5951 12.42891894168880
GONETS-M 24             
1 54151U 22139B   26194.31684481  .00000005  00000+0 -35500-4 0  9992
2 54151  82.5010 331.0973 0017122 172.0754 188.0599 12.42892454168892
GONETS-M 25             
1 54152U 22139C   26194.30327494  .00000006  00000+0 -28736-4 0  9994
2 54152  82.5075 331.8062 0021060 171.1202 189.0255 12.42890826168896
SKIF-D                  
1 54153U 22139D   26194.03881094  .00000008  00000+0  00000+0 0  9996
2 54153  89.9493  96.6607 0007429 188.3569 171.6996  5.00430160 65401
MATS                    
1 54227U 22147A   26193.97144926  .00001347  00000+0  97861-4 0  9998
2 54227  97.6827 195.4588 0014118 109.8507 250.4243 15.05495121201642
EOS-6 (OCEANSAT-3)      
1 54361U 22158A   26194.30109097  .00000112  00000+0  42874-4 0  9990
2 54361  98.3549 292.1497 0000318 136.0127 224.1091 14.46983780191612
DONGPO 09               
1 54685U 22167D   26194.32752157  .00006996  00000+0  19629-3 0  9999
2 54685  97.6909   6.5150 0002912  56.6972 303.4550 15.36906654199460
DONGPO 08               
1 54686U 22167E   26194.28906306  .00006467  00000+0  19795-3 0  9999
2 54686  97.6874   3.5282 0009322  79.6005 280.6288 15.34159684199329
2022-167F               
1 54687U 22167F   26194.26861453  .00904473  52181-3  70749-3 0  9992
2 54687  97.5961  25.7780 0007012 243.9507 116.1057 16.14837426201004
DONGPO 10               
1 54689U 22167H   26194.28188249  .00006571  00000+0  19617-3 0  9999
2 54689  97.6955   5.5340 0005129  34.4255 325.7319 15.34975841199367
JILIN-1 GAOFEN 03D48    
1 54695U 22167P   26194.26636117  .00006646  00000+0  19342-3 0  9994
2 54695  97.6889   4.9051 0006622  36.4727 323.6966 15.35766408199393
STAR VIBE               
1 55009U 23001A   26194.24093248  .00009879  00000+0  22360-3 0  9997
2 55009  97.3163 258.8202 0005686  37.2976 322.8666 15.43320034196246
BRO-8                   
1 55011U 23001C   26194.26117456  .00021262  00000+0  37155-3 0  9998
2 55011  97.3193 259.8479 0005057  46.7613 313.4060 15.50670084196249
CONNECTA T1.2           
1 55012U 23001D   26193.70750400  .00028991  00000+0  46968-3 0  9997
2 55012  97.3248 264.8832 0004122  16.9652 343.1738 15.52743920196507
BIRKELAND               
1 55015U 23001G   26194.26226068  .00005626  00000+0  14066-3 0  9994
2 55015  97.3340 262.3045 0006633  27.6331 332.5266 15.40517584196368
ION SCV-008             
1 55051U 23001AU  26194.28937666  .00003570  00000+0  12982-3 0  9990
2 55051  97.5722 291.0497 0013185 280.7353  79.2402 15.28866234195327
ION SCV-007             
1 55060U 23001BD  26194.13472900  .00000207  00000+0  36048-4 0  9993
2 55060  97.8994 256.6335 0010989 249.6176 110.3855 14.77575181190083
HUYGENS                 
1 55093U 23001CN  26194.26234531  .00005689  00000+0  14214-3 0  9998
2 55093  97.3244 261.5004 0008635   0.2861 359.8389 15.40516962196381
